STARLINK-5743           
1 55597U 23020AE  26068.87853722  .00030642  00000+0  22575-2 0  9999
2 55597  43.0041 351.0025 0004696  34.3722 325.7423 15.02796951169093
CURIUM ONE              
1 60242U 24128H   26068.68697111  .00012574  00000+0  74107-3 0  9992
2 60242  61.9790 197.7537 0050891 110.7183 249.9377 15.10847276 91418
